{
  "type": "FeatureCollection",
  "features": [
    {
      "type": "Feature",
      "properties": {
        "norad_id": 31047,
        "name": "FENGYUN 1C DEB",
        "group": "fengyun-1c-debris",
        "lat": -16.42954791349112,
        "lon": 0.5767344566146264,
        "alt_km": 868.0170662953105,
        "timestamp": "2025-12-26T22:28:06.064785+00:00",
        "meta_object_name": "FENGYUN 1C DEB",
        "meta_object_id": "1999-025BER",
        "meta_epoch": "2025-12-26T11:22:45.310656",
        "meta_mean_motion": 14.13863184,
        "meta_eccentricity": 0.00262623,
        "meta_inclination": 98.7008,
        "meta_ra_of_asc_node": 357.539,
        "meta_arg_of_pericenter": 138.8887,
        "meta_mean_anomaly": 14.2791,
        "meta_ephemeris_type": 0,
        "meta_classification_type": "U",
        "meta_norad_cat_id": 31047,
        "meta_element_set_no": 999,
        "meta_rev_at_epoch": 96553,
        "meta_bstar": 0.00039762514,
        "meta_mean_motion_dot": 7.13e-06,
        "meta_mean_motion_ddot": 0,
        "tle_line1": "1 31047U 99025BER 25360.47413554  .00000713  00000+0  39763-3 0  9990",
        "tle_line2": "2 31047  98.7008 357.5390 0026262 138.8887  14.2791 14.13863184965533"
      },
      "geometry": {
        "type": "Point",
        "coordinates": [
          0.5767344566146264,
          -16.42954791349112
        ]
      }
    },
    {
      "type": "Feature",
      "properties": {
        "norad_id": 31051,
        "name": "FENGYUN 1C DEB",
        "group": "fengyun-1c-debris",
        "lat": -71.43322860353172,
        "lon": -176.47254271773352,
        "alt_km": 926.2080876173741,
        "timestamp": "2025-12-26T22:28:06.064795+00:00",
        "meta_object_name": "FENGYUN 1C DEB",
        "meta_object_id": "1999-025BEV",
        "meta_epoch": "2025-12-24T19:38:00.414240",
        "meta_mean_motion": 14.03039998,
        "meta_eccentricity": 0.00534769,
        "meta_inclination": 98.8164,
        "meta_ra_of_asc_node": 28.9954,
        "meta_arg_of_pericenter": 102.6706,
        "meta_mean_anomaly": 258.0447,
        "meta_ephemeris_type": 0,
        "meta_classification_type": "U",
        "meta_norad_cat_id": 31051,
        "meta_element_set_no": 999,
        "meta_rev_at_epoch": 63988,
        "meta_bstar": 0.00030067955,
        "meta_mean_motion_dot": 4.31e-06,
        "meta_mean_motion_ddot": 0,
        "tle_line1": "1 31051U 99025BEV 25358.81806035  .00000431  00000+0  30068-3 0  9996",
        "tle_line2": "2 31051  98.8164  28.9954 0053476 102.6706 258.0447 14.03039998639882"
      },
      "geometry": {
        "type": "Point",
        "coordinates": [
          -176.47254271773352,
          -71.43322860353172
        ]
      }
    },
    {
      "type": "Feature",
      "properties": {
        "norad_id": 31053,
        "name": "FENGYUN 1C DEB",
        "group": "fengyun-1c-debris",
        "lat": -3.8658279533489144,
        "lon": -58.22215623257761,
        "alt_km": 1112.9771208617021,
        "timestamp": "2025-12-26T22:28:06.064806+00:00",
        "meta_object_name": "FENGYUN 1C DEB",
        "meta_object_id": "1999-025BEX",
        "meta_epoch": "2025-12-24T13:45:33.931296",
        "meta_mean_motion": 13.75910871,
        "meta_eccentricity": 0.03086955,
        "meta_inclination": 98.7943,
        "meta_ra_of_asc_node": 120.1919,
        "meta_arg_of_pericenter": 63.3862,
        "meta_mean_anomaly": 299.8565,
        "meta_ephemeris_type": 0,
        "meta_classification_type": "U",
        "meta_norad_cat_id": 31053,
        "meta_element_set_no": 999,
        "meta_rev_at_epoch": 93639,
        "meta_bstar": 0.0012850062,
        "meta_mean_motion_dot": 1.728e-05,
        "meta_mean_motion_ddot": 0,
        "tle_line1": "1 31053U 99025BEX 25358.57330939  .00001728  00000+0  12850-2 0  9994",
        "tle_line2": "2 31053  98.7943 120.1919 0308695  63.3862 299.8565 13.75910871936392"
      },
      "geometry": {
        "type": "Point",
        "coordinates": [
          -58.22215623257761,
          -3.8658279533489144
        ]
      }
    },
    {
      "type": "Feature",
      "properties": {
        "norad_id": 31054,
        "name": "FENGYUN 1C DEB",
        "group": "fengyun-1c-debris",
        "lat": 14.29574737583111,
        "lon": 11.297675909684402,
        "alt_km": 849.9775846871999,
        "timestamp": "2025-12-26T22:28:06.064816+00:00",
        "meta_object_name": "FENGYUN 1C DEB",
        "meta_object_id": "1999-025BEY",
        "meta_epoch": "2025-12-25T13:07:45.070752",
        "meta_mean_motion": 14.12177235,
        "meta_eccentricity": 0.0010801,
        "meta_inclination": 98.6898,
        "meta_ra_of_asc_node": 12.1847,
        "meta_arg_of_pericenter": 87.401,
        "meta_mean_anomaly": 69.1197,
        "meta_ephemeris_type": 0,
        "meta_classification_type": "U",
        "meta_norad_cat_id": 31054,
        "meta_element_set_no": 999,
        "meta_rev_at_epoch": 96944,
        "meta_bstar": 0.00014512,
        "meta_mean_motion_dot": 2.24e-06,
        "meta_mean_motion_ddot": 0,
        "tle_line1": "1 31054U 99025BEY 25359.54704943  .00000224  00000+0  14512-3 0  9991",
        "tle_line2": "2 31054  98.6898  12.1847 0010801  87.4010  69.1197 14.12177235969444"
      },
      "geometry": {
        "type": "Point",
        "coordinates": [
          11.297675909684402,
          14.29574737583111
        ]
      }
    },
    {
      "type": "Feature",
      "properties": {
        "norad_id": 31055,
        "name": "FENGYUN 1C DEB",
        "group": "fengyun-1c-debris",
        "lat": 45.57046482128615,
        "lon": 22.730732375215283,
        "alt_km": 871.6205067427854,
        "timestamp": "2025-12-26T22:28:06.064826+00:00",
        "meta_object_name": "FENGYUN 1C DEB",
        "meta_object_id": "1999-025BEZ",
        "meta_epoch": "2025-12-25T22:58:14.257344",
        "meta_mean_motion": 14.10392623,
        "meta_eccentricity": 0.0024369,
        "meta_inclination": 98.7585,
        "meta_ra_of_asc_node": 30.8253,
        "meta_arg_of_pericenter": 233.3835,
        "meta_mean_anomaly": 244.5531,
        "meta_ephemeris_type": 0,
        "meta_classification_type": "U",
        "meta_norad_cat_id": 31055,
        "meta_element_set_no": 999,
        "meta_rev_at_epoch": 96308,
        "meta_bstar": 0.00033515,
        "meta_mean_motion_dot": 5.54e-06,
        "meta_mean_motion_ddot": 0,
        "tle_line1": "1 31055U 99025BEZ 25359.95710946  .00000554  00000+0  33515-3 0  9997",
        "tle_line2": "2 31055  98.7585  30.8253 0024369 233.3835 244.5531 14.10392623963081"
      },
      "geometry": {
        "type": "Point",
        "coordinates": [
          22.730732375215283,
          45.57046482128615
        ]
      }
    },
    {
      "type": "Feature",
      "properties": {
        "norad_id": 31056,
        "name": "FENGYUN 1C DEB",
        "group": "fengyun-1c-debris",
        "lat": -29.28700634557073,
        "lon": 158.16615931803162,
        "alt_km": 851.0523703127301,
        "timestamp": "2025-12-26T22:28:06.064837+00:00",
        "meta_object_name": "FENGYUN 1C DEB",
        "meta_object_id": "1999-025BFA",
        "meta_epoch": "2025-12-26T10:19:01.386624",
        "meta_mean_motion": 14.14324845,
        "meta_eccentricity": 0.00248882,
        "meta_inclination": 98.6697,
        "meta_ra_of_asc_node": 342.584,
        "meta_arg_of_pericenter": 303.0683,
        "meta_mean_anomaly": 210.3324,
        "meta_ephemeris_type": 0,
        "meta_classification_type": "U",
        "meta_norad_cat_id": 31056,
        "meta_element_set_no": 999,
        "meta_rev_at_epoch": 97011,
        "meta_bstar": 0.00037108582,
        "meta_mean_motion_dot": 6.68e-06,
        "meta_mean_motion_ddot": 0,
        "tle_line1": "1 31056U 99025BFA 25360.42987716  .00000668  00000+0  37109-3 0  9992",
        "tle_line2": "2 31056  98.6697 342.5840 0024888 303.0683 210.3324 14.14324845970110"
      },
      "geometry": {
        "type": "Point",
        "coordinates": [
          158.16615931803162,
          -29.28700634557073
        ]
      }
    },
    {
      "type": "Feature",
      "properties": {
        "norad_id": 31057,
        "name": "FENGYUN 1C DEB",
        "group": "fengyun-1c-debris",
        "lat": -5.2431376710134465,
        "lon": -138.3570953643556,
        "alt_km": 544.9175279047222,
        "timestamp": "2025-12-26T22:28:06.064848+00:00",
        "meta_object_name": "FENGYUN 1C DEB",
        "meta_object_id": "1999-025BFB",
        "meta_epoch": "2025-12-23T20:35:18.344544",
        "meta_mean_motion": 14.79509399,
        "meta_eccentricity": 0.01376332,
        "meta_inclination": 99.2549,
        "meta_ra_of_asc_node": 38.9584,
        "meta_arg_of_pericenter": 217.07,
        "meta_mean_anomaly": 142.094,
        "meta_ephemeris_type": 0,
        "meta_classification_type": "U",
        "meta_norad_cat_id": 31057,
        "meta_element_set_no": 999,
        "meta_rev_at_epoch": 62117,
        "meta_bstar": 0.0010448205,
        "meta_mean_motion_dot": 9.107e-05,
        "meta_mean_motion_ddot": 0,
        "tle_line1": "1 31057U 99025BFB 25357.85785121  .00009107  00000+0  10448-2 0  9995",
        "tle_line2": "2 31057  99.2549  38.9584 0137633 217.0700 142.0940 14.79509399621176"
      },
      "geometry": {
        "type": "Point",
        "coordinates": [
          -138.3570953643556,
          -5.2431376710134465
        ]
      }
    }
  ]
}